[{"OBJECT_NAME":"STARLINK-6259","OBJECT_ID":"2023-088AT","EPOCH":"2026-03-09T22:00:01.999584","MEAN_MOTION":15.08410027,"ECCENTRICITY":0.00011886,"INCLINATION":43.0008,"RA_OF_ASC_NODE":92.9306,"ARG_OF_PERICENTER":317.4913,"MEAN_ANOMALY":175.4469,"EPHEMERIS_TYPE":0,"CLASSIFICATION_TYPE":"U","NORAD_CAT_ID":57089,"ELEMENT_SET_NO":999,"REV_AT_EPOCH":578,"BSTAR":0.0035208814,"MEAN_MOTION_DOT":0.0005594,"MEAN_MOTION_DDOT":0},{"OBJECT_NAME":"CZ-6A DEB","OBJECT_ID":"2024-140KN","EPOCH":"2026-03-09T13:37:52.587264","MEAN_MOTION":14.78327521,"ECCENTRICITY":0.01349,"INCLINATION":88.7947,"RA_OF_ASC_NODE":265.1899,"ARG_OF_PERICENTER":188.1767,"MEAN_ANOMALY":171.726,"EPHEMERIS_TYPE":0,"CLASSIFICATION_TYPE":"U","NORAD_CAT_ID":60883,"ELEMENT_SET_NO":999,"REV_AT_EPOCH":8325,"BSTAR":0.00065033,"MEAN_MOTION_DOT":5.532e-5,"MEAN_MOTION_DDOT":0}]
